CTC1_L_00594001-01
1 10000U 23683XP  26075.70039352  .00000000  00000+0  00000-0 0  9991
2 10000  55.0000   0.0000 0000000   0.0000   0.0000  5.94050274    10
CTC1_L_00594001-02
1 10001U 24433PE  26075.70039352  .00000000  00000+0  00000-0 0  9996
2 10001  55.0000   0.0000 0000000   0.0000  36.0000  5.94050274    10
CTC1_L_00594001-03
1 10002U 23478EW  26075.70039352  .00000000  00000+0  00000-0 0  9995
2 10002  55.0000   0.0000 0000000   0.0000  72.0000  5.94050274    11
CTC1_L_00594001-04
1 10003U 22421LR  26075.70039352  .00000000  00000+0  00000-0 0  9993
2 10003  55.0000   0.0000 0000000   0.0000 108.0000  5.94050274    12
CTC1_L_00594001-05
1 10004U 25591HW  26075.70039352  .00000000  00000+0  00000-0 0  9995
2 10004  55.0000   0.0000 0000000   0.0000 144.0000  5.94050274    13
CTC1_L_00594001-06
1 10005U 25883TP  26075.70039352  .00000000  00000+0  00000-0 0  9990
2 10005  55.0000   0.0000 0000000   0.0000 180.0000  5.94050274    14
CTC1_L_00594001-07
1 10006U 22639EM  26075.70039352  .00000000  00000+0  00000-0 0  9997
2 10006  55.0000   0.0000 0000000   0.0000 216.0000  5.94050274    15
CTC1_L_00594001-08
1 10007U 26233IQ  26075.70039352  .00000000  00000+0  00000-0 0  9992
2 10007  55.0000   0.0000 0000000   0.0000 252.0000  5.94050274    16
CTC1_L_00594001-09
1 10008U 24665MM  26075.70039352  .00000000  00000+0  00000-0 0  9990
2 10008  55.0000   0.0000 0000000   0.0000 288.0000  5.94050274    16
CTC1_L_00594001-10
1 10009U 26588RW  26075.70039352  .00000000  00000+0  00000-0 0  9997
2 10009  55.0000   0.0000 0000000   0.0000 324.0000  5.94050274    18
CTC1_L_00594002-01
1 10010U 22161CP  26075.70039352  .00000000  00000+0  00000-0 0  9992
2 10010  55.0000  30.0000 0000000   0.0000  12.0000  5.94050274    17
CTC1_L_00594002-02
1 10011U 26992ZA  26075.70039352  .00000000  00000+0  00000-0 0  9999
2 10011  55.0000  30.0000 0000000   0.0000  48.0000  5.94050274    17
CTC1_L_00594002-03
1 10012U 23868SG  26075.70039352  .00000000  00000+0  00000-0 0  9999
2 10012  55.0000  30.0000 0000000   0.0000  84.0000  5.94050274    18
CTC1_L_00594002-04
1 10013U 26419NA  26075.70039352  .00000000  00000+0  00000-0 0  9995
2 10013  55.0000  30.0000 0000000   0.0000 120.0000  5.94050274    10
CTC1_L_00594002-05
1 10014U 22556NW  26075.70039352  .00000000  00000+0  00000-0 0  9994
2 10014  55.0000  30.0000 0000000   0.0000 156.0000  5.94050274    10
CTC1_L_00594002-06
1 10015U 26250XN  26075.70039352  .00000000  00000+0  00000-0 0  9990
2 10015  55.0000  30.0000 0000000   0.0000 192.0000  5.94050274    11
CTC1_L_00594002-07
1 10016U 26098VS  26075.70039352  .00000000  00000+0  00000-0 0  9991
2 10016  55.0000  30.0000 0000000   0.0000 228.0000  5.94050274    12
CTC1_L_00594002-08
1 10017U 24813RV  26075.70039352  .00000000  00000+0  00000-0 0  9995
2 10017  55.0000  30.0000 0000000   0.0000 264.0000  5.94050274    13
CTC1_L_00594002-09
1 10018U 23462AC  26075.70039352  .00000000  00000+0  00000-0 0  9995
2 10018  55.0000  30.0000 0000000   0.0000 300.0000  5.94050274    15
CTC1_L_00594002-10
1 10019U 23409GB  26075.70039352  .00000000  00000+0  00000-0 0  9997
2 10019  55.0000  30.0000 0000000   0.0000 336.0000  5.94050274    15
CTC1_L_00594003-01
1 10020U 22400FN  26075.70039352  .00000000  00000+0  00000-0 0  9999
2 10020  55.0000  60.0000 0000000   0.0000  24.0000  5.94050274    14
CTC1_L_00594003-02
1 10021U 23727PV  26075.70039352  .00000000  00000+0  00000-0 0  9993
2 10021  55.0000  60.0000 0000000   0.0000  60.0000  5.94050274    15
CTC1_L_00594003-03
1 10022U 26741JK  26075.70039352  .00000000  00000+0  00000-0 0  9993
2 10022  55.0000  60.0000 0000000   0.0000  96.0000  5.94050274    15
CTC1_L_00594003-04
1 10023U 26135DM  26075.70039352  .00000000  00000+0  00000-0 0  9991
2 10023  55.0000  60.0000 0000000   0.0000 132.0000  5.94050274    17
CTC1_L_00594003-05
1 10024U 22615RB  26075.70039352  .00000000  00000+0  00000-0 0  9991
2 10024  55.0000  60.0000 0000000   0.0000 168.0000  5.94050274    17
CTC1_L_00594003-06
1 10025U 26258OZ  26075.70039352  .00000000  00000+0  00000-0 0  9999
2 10025  55.0000  60.0000 0000000   0.0000 204.0000  5.94050274    19
CTC1_L_00594003-07
1 10026U 25943HG  26075.70039352  .00000000  00000+0  00000-0 0  9990
2 10026  55.0000  60.0000 0000000   0.0000 240.0000  5.94050274    10
CTC1_L_00594003-08
1 10027U 26295ZU  26075.70039352  .00000000  00000+0  00000-0 0  9992
2 10027  55.0000  60.0000 0000000   0.0000 276.0000  5.94050274    10
CTC1_L_00594003-09
1 10028U 26544QN  26075.70039352  .00000000  00000+0  00000-0 0  9990
2 10028  55.0000  60.0000 0000000   0.0000 312.0000  5.94050274    12
CTC1_L_00594003-10
1 10029U 23605BT  26075.70039352  .00000000  00000+0  00000-0 0  9996
2 10029  55.0000  60.0000 0000000   0.0000 348.0000  5.94050274    12
CTC1_L_00594004-01
1 10030U 25533SU  26075.70039352  .00000000  00000+0  00000-0 0  9990
2 10030  55.0000  90.0000 0000000   0.0000  36.0000  5.94050274    11
CTC1_L_00594004-02
1 10031U 24979WT  26075.70039352  .00000000  00000+0  00000-0 0  9994
2 10031  55.0000  90.0000 0000000   0.0000  72.0000  5.94050274    12
CTC1_L_00594004-03
1 10032U 23811GE  26075.70039352  .00000000  00000+0  00000-0 0  9999
2 10032  55.0000  90.0000 0000000   0.0000 108.0000  5.94050274    13
CTC1_L_00594004-04
1 10033U 23634FK  26075.70039352  .00000000  00000+0  00000-0 0  9993
2 10033  55.0000  90.0000 0000000   0.0000 144.0000  5.94050274    14
CTC1_L_00594004-05
1 10034U 26653DI  26075.70039352  .00000000  00000+0  00000-0 0  9998
2 10034  55.0000  90.0000 0000000   0.0000 180.0000  5.94050274    15
CTC1_L_00594004-06
1 10035U 22974FB  26075.70039352  .00000000  00000+0  00000-0 0  9991
2 10035  55.0000  90.0000 0000000   0.0000 216.0000  5.94050274    16
CTC1_L_00594004-07
1 10036U 24640BU  26075.70039352  .00000000  00000+0  00000-0 0  9994
2 10036  55.0000  90.0000 0000000   0.0000 252.0000  5.94050274    17
CTC1_L_00594004-08
1 10037U 26999ZY  26075.70039352  .00000000  00000+0  00000-0 0  9994
2 10037  55.0000  90.0000 0000000   0.0000 288.0000  5.94050274    17
CTC1_L_00594004-09
1 10038U 24759AJ  26075.70039352  .00000000  00000+0  00000-0 0  9997
2 10038  55.0000  90.0000 0000000   0.0000 324.0000  5.94050274    19
CTC1_L_00594004-10
1 10039U 22281UA  26075.70039352  .00000000  00000+0  00000-0 0  9996
2 10039  55.0000  90.0000 0000000   0.0000   0.0000  5.94050274    11
CTC1_L_00594005-01
1 10040U 26689EG  26075.70039352  .00000000  00000+0  00000-0 0  9994
2 10040  55.0000 120.0000 0000000   0.0000  48.0000  5.94050274    19
CTC1_L_00594005-02
1 10041U 23370RK  26075.70039352  .00000000  00000+0  00000-0 0  9999
2 10041  55.0000 120.0000 0000000   0.0000  84.0000  5.94050274    10
CTC1_L_00594005-03
1 10042U 26805IX  26075.70039352  .00000000  00000+0  00000-0 0  9996
2 10042  55.0000 120.0000 0000000   0.0000 120.0000  5.94050274    12
CTC1_L_00594005-04
1 10043U 22699DO  26075.70039352  .00000000  00000+0  00000-0 0  9994
2 10043  55.0000 120.0000 0000000   0.0000 156.0000  5.94050274    12
CTC1_L_00594005-05
1 10044U 22067MK  26075.70039352  .00000000  00000+0  00000-0 0  9994
2 10044  55.0000 120.0000 0000000   0.0000 192.0000  5.94050274    13
CTC1_L_00594005-06
1 10045U 23665TC  26075.70039352  .00000000  00000+0  00000-0 0  9990
2 10045  55.0000 120.0000 0000000   0.0000 228.0000  5.94050274    14
CTC1_L_00594005-07
1 10046U 22262JR  26075.70039352  .00000000  00000+0  00000-0 0  9993
2 10046  55.0000 120.0000 0000000   0.0000 264.0000  5.94050274    15
CTC1_L_00594005-08
1 10047U 25754HD  26075.70039352  .00000000  00000+0  00000-0 0  9993
2 10047  55.0000 120.0000 0000000   0.0000 300.0000  5.94050274    17
CTC1_L_00594005-09
1 10048U 23647PU  26075.70039352  .00000000  00000+0  00000-0 0  9993
2 10048  55.0000 120.0000 0000000   0.0000 336.0000  5.94050274    17
CTC1_L_00594005-10
1 10049U 22408AI  26075.70039352  .00000000  00000+0  00000-0 0  9998
2 10049  55.0000 120.0000 0000000   0.0000  12.0000  5.94050274    19
CTC1_L_00594006-01
1 10050U 24754EX  26075.70039352  .00000000  00000+0  00000-0 0  9996
2 10050  55.0000 150.0000 0000000   0.0000  60.0000  5.94050274    17
CTC1_L_00594006-02
1 10051U 25311QJ  26075.70039352  .00000000  00000+0  00000-0 0  9997
2 10051  55.0000 150.0000 0000000   0.0000  96.0000  5.94050274    17
CTC1_L_00594006-03
1 10052U 25383JT  26075.70039352  .00000000  00000+0  00000-0 0  9997
2 10052  55.0000 150.0000 0000000   0.0000 132.0000  5.94050274    19
CTC1_L_00594006-04
1 10053U 26468IT  26075.70039352  .00000000  00000+0  00000-0 0  9993
2 10053  55.0000 150.0000 0000000   0.0000 168.0000  5.94050274    19
CTC1_L_00594006-05
1 10054U 26096EG  26075.70039352  .00000000  00000+0  00000-0 0  9991
2 10054  55.0000 150.0000 0000000   0.0000 204.0000  5.94050274    11
CTC1_L_00594006-06
1 10055U 26751YD  26075.70039352  .00000000  00000+0  00000-0 0  9990
2 10055  55.0000 150.0000 0000000   0.0000 240.0000  5.94050274    12
CTC1_L_00594006-07
1 10056U 25139QB  26075.70039352  .00000000  00000+0  00000-0 0  9990
2 10056  55.0000 150.0000 0000000   0.0000 276.0000  5.94050274    12
CTC1_L_00594006-08
1 10057U 25711IT  26075.70039352  .00000000  00000+0  00000-0 0  9997
2 10057  55.0000 150.0000 0000000   0.0000 312.0000  5.94050274    14
CTC1_L_00594006-09
1 10058U 25591JU  26075.70039352  .00000000  00000+0  00000-0 0  9994
2 10058  55.0000 150.0000 0000000   0.0000 348.0000  5.94050274    14
CTC1_L_00594006-10
1 10059U 23597UV  26075.70039352  .00000000  00000+0  00000-0 0  9999
2 10059  55.0000 150.0000 0000000   0.0000  24.0000  5.94050274    16
CTC1_L_00594007-01
1 10060U 23976EN  26075.70039352  .00000000  00000+0  00000-0 0  9992
2 10060  55.0000 180.0000 0000000   0.0000  72.0000  5.94050274    14
CTC1_L_00594007-02
1 10061U 22117JB  26075.70039352  .00000000  00000+0  00000-0 0  9999
2 10061  55.0000 180.0000 0000000   0.0000 108.0000  5.94050274    15
